{
    "links": {
        "self": "http://www.neowsapp.com/rest/v1/neo/3830869?api_key=iIulBulltgU6a56xZRHN4H3l9WmuAYTsLGpBGhQ2"
    },
    "id": "3830869",
    "neo_reference_id": "3830869",
    "name": "(2018 SR1)",
    "designation": "2018 SR1",
    "nasa_jpl_url": "http://ssd.jpl.nasa.gov/sbdb.cgi?sstr=3830869",
    "absolute_magnitude_h": 22.5,
    "estimated_diameter": {
        "kilometers": {
            "estimated_diameter_min": 0.0840533402,
            "estimated_diameter_max": 0.1879489824
        },
        "meters": {
            "estimated_diameter_min": 84.0533402073,
            "estimated_diameter_max": 187.9489824394
        },
        "miles": {
            "estimated_diameter_min": 0.0522283081,
            "estimated_diameter_max": 0.1167860472
        },
        "feet": {
            "estimated_diameter_min": 275.7655606856,
            "estimated_diameter_max": 616.6305395464
        }
    },
    "is_potentially_hazardous_asteroid": false,
    "close_approach_data": [
        {
            "close_approach_date": "1913-09-06",
            "close_approach_date_full": "1913-Sep-06 20:51",
            "epoch_date_close_approach": -1777259340000,
            "relative_velocity": {
                "kilometers_per_second": "16.1374938271",
                "kilometers_per_hour": "58094.9777776144",
                "miles_per_hour": "36097.9599418738"
            },
            "miss_distance": {
                "astronomical": "0.1390503037",
                "lunar": "54.0905681393",
                "kilometers": "20801629.256373119",
                "miles": "12925533.0549782822"
            },
            "orbiting_body": "Earth"
        },
        {
            "close_approach_date": "2016-09-07",
            "close_approach_date_full": "2016-Sep-07 21:27",
            "epoch_date_close_approach": 1473283620000,
            "relative_velocity": {
                "kilometers_per_second": "5.0587223408",
                "kilometers_per_hour": "18211.4004267994",
                "miles_per_hour": "11315.8560040854"
            },
            "miss_distance": {
                "astronomical": "1.5275950901",
                "lunar": "594.2344900489",
                "kilometers": "228524971.701418087",
                "miles": "141998832.8418881206"
            },
            "orbiting_body": "Juptr"
        },
        {
            "close_approach_date": "2018-09-22",
            "close_approach_date_full": "2018-Sep-22 16:30",
            "epoch_date_close_approach": 1537633800000,
            "relative_velocity": {
                "kilometers_per_second": "14.1144783766",
                "kilometers_per_hour": "50812.1221558572",
                "miles_per_hour": "31572.6766806769"
            },
            "miss_distance": {
                "astronomical": "0.0436520734",
                "lunar": "16.9806565526",
                "kilometers": "6530257.201723658",
                "miles": "4057713.6664681604"
            },
            "orbiting_body": "Earth"
        }
    ],
    "orbital_data": {
        "orbit_id": "10",
        "orbit_determination_date": "2018-10-21 07:09:16",
        "first_observation_date": "2018-09-20",
        "last_observation_date": "2018-10-21",
        "data_arc_in_days": 31,
        "observations_used": 200,
        "orbit_uncertainty": "7",
        "minimum_orbit_intersection": ".0428343",
        "jupiter_tisserand_invariant": "3.136",
        "epoch_osculation": "2459000.5",
        "eccentricity": ".58048977782043",
        "semi_major_axis": "2.492135520492519",
        "inclination": "21.51829911052887",
        "ascending_node_longitude": "358.7618936814861",
        "orbital_period": "1436.997159717113",
        "perihelion_distance": "1.045476325903415",
        "perihelion_argument": "3.081453983419628",
        "aphelion_distance": "3.938794715081623",
        "perihelion_time": "2458386.696997920322",
        "mean_anomaly": "153.7714109276206",
        "mean_motion": ".2505224158347463",
        "equinox": "J2000",
        "orbit_class": {
            "orbit_class_type": "AMO",
            "orbit_class_description": "Near-Earth asteroid orbits similar to that of 1221 Amor",
            "orbit_class_range": "1.017 AU < q (perihelion) < 1.3 AU"
        }
    },
    "is_sentry_object": false
}